SWARM B                 
1 39451U 13067A   26179.91765845  .00003345  00000+0  11899-3 0  9994
2 39451  87.7442 338.7521 0002942  80.5079 279.6502 15.28621806685033
SWARM A                 
1 39452U 13067B   26179.89739902  .00009491  00000+0  16185-3 0  9998
2 39452  87.3317  51.8904 0003159  97.1612 263.0009 15.51171171708066
SWARM C                 
1 39453U 13067C   26179.89729655  .00009416  00000+0  16059-3 0  9990
2 39453  87.3316  50.4714 0003165  97.4172 262.7449 15.51169819708027
BRITE-CA1 (TORONTO)     
1 40020U 14033L   26179.86010308  .00000874  00000+0  13886-3 0  9995
2 40020  97.9752 308.5737 0077426 238.9986 120.3601 14.72694477643930
OCO 2                   
1 40059U 14035A   26179.89794371  .00000382  00000+0  94782-4 0  9990
2 40059  98.2019 121.0127 0001497  82.9231 277.2138 14.57120333637756
BRITE-PL2 (HEWELIUSZ)   
1 40119U 14049B   26179.88828973  .00001483  00000+0  14208-3 0  9994
2 40119  97.9109 291.9792 0015251  72.6737 287.6150 14.94635715643194
MMS 1                   
1 40482U 15011A   26179.91668981 -.00000958  00000+0  00000+0 0  9990
2 40482  72.2817 348.6622 8317876 167.6020  55.1825  0.28374796  1384
MMS 2                   
1 40483U 15011B   26179.91668981 -.00000958  00000+0  00000+0 0  9991
2 40483  72.2854 348.6612 8320685 167.6053  55.1728  0.28374751  1386
MMS 3                   
1 40484U 15011C   26179.91668981 -.00000957  00000+0  00000+0 0  9991
2 40484  72.2850 348.6732 8319008 167.6125  55.1485  0.28375027  1380
MMS 4                   
1 40485U 15011D   26179.91668981 -.00000957  00000+0  00000+0 0  9992
2 40485  72.2812 348.6564 8318914 167.6223  55.1416  0.28375045  1380
ASTROSAT                
1 40930U 15052A   26179.72971380  .00001534  00000+0  10492-3 0  9992
2 40930   5.9976  72.2560 0008132 202.6247 157.3523 14.82525501581545
DAMPE                   
1 41173U 15078A   26179.99990650  .00001175  00000+0  41998-4 0  9997
2 41173  97.4555 185.5249 0013218  40.6166 319.6059 15.30814935586354
PISAT                   
1 41784U 16059B   26179.92795398  .00000894  00000+0  15961-3 0  9997
2 41784  97.8180 179.8763 0029383 165.1066 195.1013 14.69002723521462
HXMT (HUIYAN)           
1 42758U 17034A   26179.97420578  .00003956  00000+0  19697-3 0  9995
2 42758  43.0141 117.4029 0032369 221.8473 137.9900 15.18557570499459
FLYING LAPTOP           
1 42831U 17042G   26179.98365351  .00003021  00000+0  23887-3 0  9993
2 42831  97.4732 335.0661 0019989  83.9472 276.4030 15.01219213488226
ZHANGHENG 1-01 (CSES-1) 
1 43194U 18015C   26179.98177884  .00006523  00000+0  29662-3 0  9996
2 43194  97.6873 345.8747 0017502 222.6494 137.3383 15.20960694466438
SALSAT                  
1 46495U 20068K   26179.98408402  .00006804  00000+0  23731-3 0  9990
2 46495  97.8845 183.7681 0007870 257.4321 102.6038 15.29961615317164
IXPE                    
1 49954U 21121A   26180.00002315  .00010781  00000+0  58232-3 0  9995
2 49954   0.2290 228.6648 0007237 259.5633  20.2254 15.10356093  5399
SMILE                   
1 69123U 26109A   26158.38327019 -.00000041  00000+0 -36778-3 0  9994
2 69123  69.9787 209.3069 3310191 288.5544  45.7342  7.54049028  2480
