OBJECT_NAME,OBJECT_ID,EPOCH,MEAN_MOTION,ECCENTRICITY,INCLINATION,RA_OF_ASC_NODE,ARG_OF_PERICENTER,MEAN_ANOMALY,EPHEMERIS_TYPE,CLASSIFICATION_TYPE,NORAD_CAT_ID,ELEMENT_SET_NO,REV_AT_EPOCH,BSTAR,MEAN_MOTION_DOT,MEAN_MOTION_DDOT
SWARM B,2013-067A,2026-06-28T22:01:25.690080,15.28621806,.00029423,87.7442,338.7521,80.5079,279.6502,0,U,39451,999,68503,.11899249E-3,.3345E-4,0
SWARM A,2013-067B,2026-06-28T21:32:15.275328,15.51171171,.00031598,87.3317,51.8904,97.1612,263.0009,0,U,39452,999,70806,.16185416E-3,.9491E-4,0
SWARM C,2013-067C,2026-06-28T21:32:06.421920,15.51169819,.00031651,87.3316,50.4714,97.4172,262.7449,0,U,39453,999,70802,.16059255E-3,.9416E-4,0
BRITE-CA1 (TORONTO),2014-033L,2026-06-28T20:38:32.906112,14.72694477,.00774264,97.9752,308.5737,238.9986,120.3601,0,U,40020,999,64393,.13886385E-3,.874E-5,0
OCO 2,2014-035A,2026-06-28T21:33:02.336544,14.57120333,.00014975,98.2019,121.0127,82.9231,277.2138,0,U,40059,999,63775,.94782142E-4,.382E-5,0
BRITE-PL2 (HEWELIUSZ),2014-049B,2026-06-28T21:19:08.232672,14.94635715,.00152515,97.9109,291.9792,72.6737,287.6150,0,U,40119,999,64319,.14208398E-3,.1483E-4,0
MMS 1,2015-011A,2026-06-28T22:00:01.999584,0.28374796,.83178768,72.2817,348.6622,167.6020,55.1825,0,U,40482,999,138,0,-.958E-5,0
MMS 2,2015-011B,2026-06-28T22:00:01.999584,0.28374751,.83206856,72.2854,348.6612,167.6053,55.1728,0,U,40483,999,138,0,-.958E-5,0
MMS 3,2015-011C,2026-06-28T22:00:01.999584,0.28375027,.83190083,72.2850,348.6732,167.6125,55.1485,0,U,40484,999,138,0,-.957E-5,0
MMS 4,2015-011D,2026-06-28T22:00:01.999584,0.28375045,.83189141,72.2812,348.6564,167.6223,55.1416,0,U,40485,999,138,0,-.957E-5,0
ASTROSAT,2015-052A,2026-06-28T17:30:47.272320,14.82525501,.00081326,5.9976,72.2560,202.6247,157.3523,0,U,40930,999,58154,.10491567E-3,.1534E-4,0
DAMPE,2015-078A,2026-06-28T23:59:51.921600,15.30814935,.00132184,97.4555,185.5249,40.6166,319.6059,0,U,41173,999,58635,.41998367E-4,.1175E-4,0
PISAT,2016-059B,2026-06-28T22:16:15.223872,14.69002723,.00293833,97.8180,179.8763,165.1066,195.1013,0,U,41784,999,52146,.15960571E-3,.894E-5,0
HXMT (HUIYAN),2017-034A,2026-06-28T23:22:51.379392,15.18557570,.00323695,43.0141,117.4029,221.8473,137.9900,0,U,42758,999,49945,.19696572E-3,.3956E-4,0
FLYING LAPTOP,2017-042G,2026-06-28T23:36:27.663264,15.01219213,.00199894,97.4732,335.0661,83.9472,276.4030,0,U,42831,999,48822,.23886686E-3,.3021E-4,0
ZHANGHENG 1-01 (CSES-1),2018-015C,2026-06-28T23:33:45.691776,15.20960694,.00175028,97.6873,345.8747,222.6494,137.3383,0,U,43194,999,46643,.29662114E-3,.6523E-4,0
SALSAT,2020-068K,2026-06-28T23:37:04.859328,15.29961615,.00078707,97.8845,183.7681,257.4321,102.6038,0,U,46495,999,31716,.23731316E-3,.6804E-4,0
IXPE,2021-121A,2026-06-29T00:00:02.000160,15.10356093,.00072378,0.2290,228.6648,259.5633,20.2254,0,U,49954,999,539,.58232136E-3,.10781E-3,0
SMILE,2026-109A,2026-06-07T09:11:54.544416,7.54049028,.3310191,69.9787,209.3069,288.5544,45.7342,0,U,69123,999,248,-.36778157E-3,-.41E-6,0
